OBJECT_NAME,OBJECT_ID,EPOCH,MEAN_MOTION,ECCENTRICITY,INCLINATION,RA_OF_ASC_NODE,ARG_OF_PERICENTER,MEAN_ANOMALY,EPHEMERIS_TYPE,CLASSIFICATION_TYPE,NORAD_CAT_ID,ELEMENT_SET_NO,REV_AT_EPOCH,BSTAR,MEAN_MOTION_DOT,MEAN_MOTION_DDOT
DUBAISAT-1,2009-041B,2026-07-08T22:20:10.558464,14.75160197,.00104149,98.0077,322.9535,8.9680,351.1713,0,U,35682,999,90830,.9509836E-4,.591E-5,0
OCEANSAT-2,2009-051A,2026-07-10T06:56:56.416704,13.99656841,.00170296,98.2318,175.8346,167.6970,192.4616,0,U,35931,999,88256,-.8756082E-4,-.166E-5,0
WORLDVIEW-2 (WV-2),2009-055A,2026-07-10T06:23:29.994432,14.37906133,.00051055,98.4758,264.4015,141.7437,218.4113,0,U,35946,999,87896,.3244312E-4,.54E-6,0
SMOS,2009-059A,2026-07-09T23:37:06.144096,14.39733948,.00011405,98.4429,17.9851,95.2282,264.9037,0,U,36036,999,87673,.61817664E-4,.15E-5,0
YAOGAN-7,2009-069A,2026-07-08T14:48:32.591232,14.78031471,.00239353,98.0044,75.3492,333.3807,26.6172,0,U,36110,999,89279,.54067378E-4,.339E-5,0
TANDEM-X,2010-030A,2026-07-07T11:29:58.986816,15.19154052,.0001887,97.4457,195.8973,94.3019,265.8431,0,U,36605,999,88972,.21566E-4,.386E-5,0
CARTOSAT-2B,2010-035A,2026-07-10T06:43:17.164992,14.78612181,.00124581,97.9944,241.6808,113.2768,246.9756,0,U,36795,999,86326,.3939337E-5,-.24E-6,0
YAOGAN-10,2010-038A,2026-07-10T08:00:15.693408,14.85421591,.00017201,97.8978,214.5535,82.9897,38.3623,0,U,36834,999,86064,.16426207E-3,.1361E-4,0
COSMO-SKYMED 4,2010-060A,2026-07-10T06:17:41.608032,14.82145264,.00014789,97.8898,14.5283,85.2480,274.8902,0,U,37216,999,84798,.31304052E-4,.197E-5,0
RESOURCESAT-2,2011-015A,2026-07-10T05:52:44.888736,14.21605220,.0011297,98.7633,258.5263,185.0357,175.0709,0,U,37387,999,78945,.25244164E-4,.11E-6,0
HAIYANG-2A,2011-043A,2026-07-10T04:39:57.505248,13.73552131,.00033093,99.3402,193.3477,43.3579,316.7830,0,U,37781,999,74981,.15890897E-3,.105E-5,0
RASAT,2011-044D,2026-07-10T06:51:20.484864,14.68189230,.00217773,98.0574,282.3304,117.2942,327.9026,0,U,37791,999,79657,.30668349E-4,.128E-5,0
SRMSAT,2011-058D,2026-07-10T06:11:51.124704,14.11580397,.00118704,19.9719,279.8299,97.3618,287.0554,0,U,37841,999,76108,.48960392E-4,.355E-5,0
PLEIADES 1A,2011-076F,2026-07-10T07:38:01.382784,14.58544930,.00017437,98.1968,266.1096,82.8785,4.5104,0,U,38012,999,77536,.1588271E-4,.28E-6,0
ZIYUAN 1-02C (ZY 1-02C),2011-079A,2026-07-10T07:36:52.341408,14.38233218,.00053453,98.4061,258.1417,231.6841,217.0008,0,U,38038,999,76253,.9086825E-4,.233E-5,0
ARIRANG-3 (KOMPSAT-3),2012-025B,2026-07-10T07:10:28.860096,14.62226522,.00064857,98.1182,148.3618,51.5995,308.5788,0,U,38338,999,75472,.58495738E-4,.248E-5,0
EXACTVIEW-1 (ADS-1B),2012-039C,2026-07-09T06:55:25.078080,14.24991160,.00119328,98.9798,308.1803,106.9299,253.3189,0,U,38709,999,72585,.48059452E-4,.66E-6,0
SPOT 6,2012-047A,2026-07-10T07:36:10.727712,14.58537321,.00011443,98.2109,258.3540,82.1383,277.9946,0,U,38755,999,73642,.39506879E-4,.138E-5,0
PLEIADES 1B,2012-068A,2026-07-10T06:24:08.741376,14.58532771,.00016292,98.1938,266.0003,81.1516,278.9868,0,U,39019,999,72421,.33704477E-4,.111E-5,0
GOKTURK 2,2012-073A,2026-07-10T06:32:38.636160,14.75564598,.00009299,97.6820,27.5463,79.3316,280.7999,0,U,39030,999,72791,.2381414E-5,-.31E-6,0
LANDSAT 8,2013-008A,2026-07-10T05:38:39.904512,14.57109816,.00013558,98.2292,261.0956,93.8422,266.2932,0,U,39084,999,70125,.50673757E-4,.183E-5,0
SARAL,2013-009A,2026-07-10T07:03:48.103200,14.32894954,.00014012,98.5554,17.5693,179.7616,180.3569,0,U,39086,999,69891,.36643788E-4,.56E-6,0
GAOFEN-1,2013-018A,2026-07-10T07:22:31.520928,14.76516899,.00166863,97.9085,262.9046,186.8549,173.2436,0,U,39150,999,71165,.10994536E-3,.717E-5,0
VNREDSAT 1,2013-021B,2026-07-10T07:31:03.326880,14.64880399,.0001667,97.9071,243.8409,80.7401,279.3991,0,U,39160,999,70367,.45430427E-4,.197E-5,0
ARIRANG-5 (KOMPSAT-5),2013-042A,2026-07-10T07:27:44.401248,15.04519315,.00055433,97.6222,17.6868,70.2043,289.9780,0,U,39227,999,70733,.60591206E-4,.788E-5,0
SKYSAT-A,2013-066C,2026-07-09T13:04:14.776608,15.13096648,.00200258,97.3805,239.2292,233.9327,126.0050,0,U,39418,999,69186,.12862473E-3,.2223E-4,0
DUBAISAT-2,2013-066D,2026-07-10T06:14:37.461984,15.10351530,.00098237,97.4572,180.8033,321.5857,38.4673,0,U,39419,999,68987,.188277E-3,.3029E-4,0
GPM-CORE,2014-009C,2026-07-10T06:08:52.387296,15.45006696,.00110638,64.9700,230.8395,260.3065,99.6826,0,U,39574,999,70137,.92754917E-4,.4147E-4,0
SENTINEL-1A,2014-016A,2026-07-10T06:29:16.855872,14.59200298,.00014389,98.1787,198.4662,85.8306,274.3058,0,U,39634,999,65338,.58409669E-4,.23E-5,0
KAZEOSAT 1,2014-024A,2026-07-10T06:22:36.679584,14.42035938,.00012721,98.3197,263.1382,82.7266,277.4068,0,U,39731,999,64188,.2497066E-5,-.34E-6,0
