DUBAISAT-1              
1 35682U 09041B   26189.93067776  .00000591  00000+0  95098-4 0  9998
2 35682  98.0077 322.9535 0010414   8.9680 351.1713 14.75160197908309
OCEANSAT-2              
1 35931U 09051A   26191.28954186 -.00000166  00000+0 -87561-4 0  9993
2 35931  98.2318 175.8346 0017029 167.6970 192.4616 13.99656841882563
WORLDVIEW-2 (WV-2)      
1 35946U 09055A   26191.26631938  .00000054  00000+0  32443-4 0  9991
2 35946  98.4758 264.4015 0005105 141.7437 218.4113 14.37906133878965
SMOS                    
1 36036U 09059A   26190.98409889  .00000150  00000+0  61818-4 0  9997
2 36036  98.4429  17.9851 0001140  95.2282 264.9037 14.39733948876734
YAOGAN-7                
1 36110U 09069A   26189.61704388  .00000339  00000+0  54067-4 0  9998
2 36110  98.0044  75.3492 0023935 333.3807  26.6172 14.78031471892792
TANDEM-X                
1 36605U 10030A   26188.47915494  .00000386  00000+0  21566-4 0  9992
2 36605  97.4457 195.8973 0001887  94.3019 265.8431 15.19154052889726
CARTOSAT-2B             
1 36795U 10035A   26191.28005978 -.00000024  00000+0  39393-5 0  9995
2 36795  97.9944 241.6808 0012458 113.2768 246.9756 14.78612181863264
YAOGAN-10               
1 36834U 10038A   26191.33351497  .00001361  00000+0  16426-3 0  9992
2 36834  97.8978 214.5535 0001720  82.9897  38.3623 14.85421591860641
COSMO-SKYMED 4          
1 37216U 10060A   26191.26228713  .00000197  00000+0  31304-4 0  9997
2 37216  97.8898  14.5283 0001478  85.2480 274.8902 14.82145264847985
RESOURCESAT-2           
1 37387U 11015A   26191.24496399  .00000011  00000+0  25244-4 0  9993
2 37387  98.7633 258.5263 0011297 185.0357 175.0709 14.21605220789451
HAIYANG-2A              
1 37781U 11043A   26191.19441557  .00000105  00000+0  15891-3 0  9992
2 37781  99.3402 193.3477 0003309  43.3579 316.7830 13.73552131749813
RASAT                   
1 37791U 11044D   26191.28565376  .00000128  00000+0  30668-4 0  9995
2 37791  98.0574 282.3304 0021777 117.2942 327.9026 14.68189230796579
SRMSAT                  
1 37841U 11058D   26191.25823061  .00000355  00000+0  48960-4 0  9997
2 37841  19.9719 279.8299 0011870  97.3618 287.0554 14.11580397761080
PLEIADES 1A             
1 38012U 11076F   26191.31807156  .00000028  00000+0  15883-4 0  9997
2 38012  98.1968 266.1096 0001743  82.8785   4.5104 14.58544930775365
ZIYUAN 1-02C (ZY 1-02C) 
1 38038U 11079A   26191.31727247  .00000233  00000+0  90868-4 0  9994
2 38038  98.4061 258.1417 0005345 231.6841 217.0008 14.38233218762538
ARIRANG-3 (KOMPSAT-3)   
1 38338U 12025B   26191.29894514  .00000248  00000+0  58496-4 0  9995
2 38338  98.1182 148.3618 0006485  51.5995 308.5788 14.62226522754720
EXACTVIEW-1 (ADS-1B)    
1 38709U 12039C   26190.28848470  .00000066  00000+0  48059-4 0  9992
2 38709  98.9798 308.1803 0011932 106.9299 253.3189 14.24991160725859
SPOT 6                  
1 38755U 12047A   26191.31679083  .00000138  00000+0  39507-4 0  9997
2 38755  98.2109 258.3540 0001144  82.1383 277.9946 14.58537321736426
PLEIADES 1B             
1 39019U 12068A   26191.26676784  .00000111  00000+0  33704-4 0  9997
2 39019  98.1938 266.0003 0001629  81.1516 278.9868 14.58532771724216
GOKTURK 2               
1 39030U 12073A   26191.27266940 -.00000031  00000+0  23814-5 0  9990
2 39030  97.6820  27.5463 0000929  79.3316 280.7999 14.75564598727919
LANDSAT 8               
1 39084U 13008A   26191.23518408  .00000183  00000+0  50674-4 0  9993
2 39084  98.2292 261.0956 0001355  93.8422 266.2932 14.57109816701256
SARAL                   
1 39086U 13009A   26191.29430675  .00000056  00000+0  36644-4 0  9991
2 39086  98.5554  17.5693 0001401 179.7616 180.3569 14.32894954698912
GAOFEN-1                
1 39150U 13018A   26191.30730927  .00000717  00000+0  10995-3 0  9992
2 39150  97.9085 262.9046 0016686 186.8549 173.2436 14.76516899711657
VNREDSAT 1              
1 39160U 13021B   26191.31323295  .00000197  00000+0  45430-4 0  9999
2 39160  97.9071 243.8409 0001667  80.7401 279.3991 14.64880399703679
ARIRANG-5 (KOMPSAT-5)   
1 39227U 13042A   26191.31093057  .00000788  00000+0  60591-4 0  9997
2 39227  97.6222  17.6868 0005543  70.2043 289.9780 15.04519315707339
SKYSAT-A                
1 39418U 13066C   26190.54461547  .00002223  00000+0  12862-3 0  9995
2 39418  97.3805 239.2292 0020025 233.9327 126.0050 15.13096648691863
DUBAISAT-2              
1 39419U 13066D   26191.26015581  .00003029  00000+0  18828-3 0  9992
2 39419  97.4572 180.8033 0009823 321.5857  38.4673 15.10351530689871
GPM-CORE                
1 39574U 14009C   26191.25616189  .00004147  00000+0  92755-4 0  9996
2 39574  64.9700 230.8395 0011063 260.3065  99.6826 15.45006696701379
SENTINEL-1A             
1 39634U 14016A   26191.27033398  .00000230  00000+0  58410-4 0  9997
2 39634  98.1787 198.4662 0001438  85.8306 274.3058 14.59200298653383
KAZEOSAT 1              
1 39731U 14024A   26191.26570231 -.00000034  00000+0  24971-5 0  9994
2 39731  98.3197 263.1382 0001272  82.7266 277.4068 14.42035938641880
